QZS-1R                  
1 49336U 21096A   24057.44001922 -.00000254  00000+0  00000+0 0  9993
2 49336  35.7110  92.2263 0747792 269.1830  84.8823  1.00298776  8576
